school_name,address,postal_code,mainlevel_code,postal,latitude,longtitude
NATIONAL JUNIOR COLLEGE,37 HILLCREST ROAD NATIONAL JUNIOR COLLEGE SINGAPORE 288913,288913,MIXED LEVEL,288913,1.330429928,103.80445870000001
TEMASEK JUNIOR COLLEGE,22 BEDOK SOUTH ROAD TEMASEK JUNIOR COLLEGE SINGAPORE 469278,469278,MIXED LEVEL,469278,1.318461906,103.935598
VICTORIA JUNIOR COLLEGE,20 MARINE VISTA VICTORIA JUNIOR COLLEGE SINGAPORE 449035,449035,JUNIOR COLLEGE,449035,1.305717965,103.919531
EUNOIA JUNIOR COLLEGE,53 MOUNT SINAI ROAD SINGAPORE 276880,276880,JUNIOR COLLEGE,276880,1.313522125,103.7870186
ANDERSON SERANGOON JUNIOR COLLEGE,4500 ANG MO KIO AVENUE 6 ANDERSON SERANGOON JUNIOR COLLEGE SINGAPORE 569843,569843,JUNIOR COLLEGE,569843,1.37839671,103.845886
YISHUN INNOVA JUNIOR COLLEGE,3 YISHUN RING ROAD YISHUN INNOVA JUNIOR COLLEGE SINGAPORE 768675,768675,JUNIOR COLLEGE,768675,1.424618845,103.8296344
TAMPINES MERIDIAN JUNIOR COLLEGE,21 PASIR RIS STREET 71 TAMPINES MERIDIAN JUNIOR COLLEGE SINGAPORE 518799,518799,JUNIOR COLLEGE,518799,1.376741929,103.93755329999999
JURONG PIONEER JUNIOR COLLEGE,21 TECK WHYE WALK JURONG PIONEER JUNIOR COLLEGE SINGAPORE 688258,688258,JUNIOR COLLEGE,688258,1.384609491,103.7539328
CATHOLIC JUNIOR COLLEGE,129 WHITLEY ROAD CATHOLIC JUNIOR COLLEGE SINGAPORE 297822,297822,JUNIOR COLLEGE,297822,1.324648771,103.83555140000001
ANGLO-CHINESE JUNIOR COLLEGE,25 DOVER CLOSE EAST ANGLO-CHINESE JUNIOR COLLEGE SINGAPORE 139745,139745,JUNIOR COLLEGE,139745,1.303287954,103.785263
ST. ANDREW'S JUNIOR COLLEGE,5 SORBY ADAMS DRIVE SAINT ANDREW'S JUNIOR COLLEGE SINGAPORE 357691,357691,JUNIOR COLLEGE,357691,1.332788888,103.86348129999999
NANYANG JUNIOR COLLEGE,128 SERANGOON AVENUE 3 NANYANG JUNIOR COLLEGE SINGAPORE 556111,556111,JUNIOR COLLEGE,556111,1.350283149,103.86649870000001
HWA CHONG INSTITUTION,661 BUKIT TIMAH ROAD HWA CHONG INSTITUTION (SCIENCE RESEARCH CENTRE) SINGAPORE 269734,269734,MIXED LEVEL,269734,1.325139595,103.8045131
MILLENNIA INSTITUTE,60 BUKIT BATOK WEST AVENUE 8 MILLENNIA INSTITUTE SINGAPORE 658965,658965,CENTRALISED INSTITUTE,658965,1.350319296,103.7415936
BUKIT PANJANG PRIMARY SCHOOL,109 CASHEW ROAD BUKIT PANJANG PRIMARY SCHOOL SINGAPORE 679676,679676,PRIMARY,679676,1.373472192,103.7693175
HAIG GIRLS' SCHOOL,51 KOON SENG ROAD HAIG GIRLS' SCHOOL (U/C) SINGAPORE 427072,427072,PRIMARY,427072,1.3115391140000001,103.9033936
TECK WHYE PRIMARY SCHOOL,11 TECK WHYE WALK TECK WHYE PRIMARY SCHOOL SINGAPORE 688261,688261,PRIMARY,688261,1.383558303,103.75368279999999
JURONG PRIMARY SCHOOL,320 JURONG EAST STREET 32 JURONG PRIMARY SCHOOL SINGAPORE 609476,609476,PRIMARY,609476,1.348684512,103.73297480000001
QUEENSTOWN PRIMARY SCHOOL,310 MARGARET DRIVE QUEENSTOWN CAREHUT SINGAPORE 149303,149303,PRIMARY,149303,1.29559366,103.80754859999999
RADIN MAS PRIMARY SCHOOL,1 BUKIT PURMEI AVENUE RADIN MAS PRIMARY SCHOOL SINGAPORE 099840,099840,PRIMARY,099840,1.274961612,103.82418
RAFFLES GIRLS' PRIMARY SCHOOL,21 HILLCREST ROAD RAFFLES GIRLS' PRIMARY SCHOOL SINGAPORE 289072,289072,PRIMARY,289072,1.3300739190000002,103.8062213
ROSYTH SCHOOL,21 SERANGOON NORTH AVENUE 4 ROSYTH SCHOOL SINGAPORE 555855,555855,PRIMARY,555855,1.372915796,103.87469320000001
DAMAI PRIMARY SCHOOL,52 BEDOK RESERVOIR CRESCENT DAMAI PRIMARY SCHOOL SINGAPORE 479226,479226,PRIMARY,479226,1.335351315,103.9212683
FUHUA PRIMARY SCHOOL,65 JURONG EAST STREET 13 FUHUA PRIMARY SCHOOL SINGAPORE 609647,609647,PRIMARY,609647,1.336403763,103.73666949999999
WOODLANDS PRIMARY SCHOOL,10 WOODLANDS DRIVE 50 WOODLANDS PRIMARY SCHOOL SINGAPORE 738853,738853,PRIMARY,738853,1.436746383,103.79177170000001
EUNOS PRIMARY SCHOOL,95 JALAN EUNOS EUNOS CAREHUT SINGAPORE 419529,419529,PRIMARY,419529,1.324388363,103.9043748
HENRY PARK PRIMARY SCHOOL,1 HOLLAND GROVE ROAD HENRY PARK PRIMARY SCHOOL SINGAPORE 278790,278790,PRIMARY,278790,1.316725811,103.7842083
BENDEMEER PRIMARY SCHOOL,91 BENDEMEER ROAD BENDEMEER PRIMARY SCHOOL SINGAPORE 339948,339948,PRIMARY,339948,1.322208475,103.86535129999999
CORPORATION PRIMARY SCHOOL,31 JURONG WEST STREET 24 CORPORATION PRIMARY SCHOOL SINGAPORE 648347,648347,PRIMARY,648347,1.35148549,103.70757840000002
YIO CHU KANG PRIMARY SCHOOL,1 HOUGANG STREET 51 YIO CHU KANG PRIMARY SCHOOL SINGAPORE 538720,538720,PRIMARY,538720,1.3778227090000001,103.88556870000001
BLANGAH RISE PRIMARY SCHOOL,91 TELOK BLANGAH HEIGHTS PCF SPARKLETOTS KCARE CENTRE@BLANGAH RISE SINGAPORE 109100,109100,PRIMARY,109100,1.276120344,103.8086284
ANG MO KIO PRIMARY SCHOOL,20 ANG MO KIO AVENUE 3 ANG MO KIO PRIMARY SCHOOL SINGAPORE 569920,569920,PRIMARY,569920,1.369092065,103.83904140000001
MAYFLOWER PRIMARY SCHOOL,200 ANG MO KIO AVENUE 5 MAYFLOWER PRIMARY SCHOOL (U/C) SINGAPORE 569878,569878,PRIMARY,569878,1.376398737,103.8431658
TECK GHEE PRIMARY SCHOOL,1 ANG MO KIO STREET 32 TECK GHEE PRIMARY SCHOOL SINGAPORE 569299,569299,PRIMARY,569299,1.365200631,103.8510322
TEMASEK PRIMARY SCHOOL,501 BEDOK SOUTH AVENUE 3 NASCANS @ TEMASEK SINGAPORE 469300,469300,PRIMARY,469300,1.3177067820000001,103.9455907
SI LING PRIMARY SCHOOL,61 WOODLANDS AVENUE 1 SI LING PRIMARY SCHOOL SINGAPORE 739067,739067,PRIMARY,739067,1.4326998659999999,103.78577879999999
JING SHAN PRIMARY SCHOOL,5 ANG MO KIO STREET 52 JING SHAN PRIMARY SCHOOL SINGAPORE 569228,569228,PRIMARY,569228,1.3718926759999999,103.85181109999999
YISHUN PRIMARY SCHOOL,500 YISHUN RING ROAD YISHUN PRIMARY SCHOOL SINGAPORE 768679,768679,PRIMARY,768679,1.433496399,103.83402740000001
STAMFORD PRIMARY SCHOOL,1 VICTORIA LANE STAMFORD CAREHUT SINGAPORE 198423,198423,PRIMARY,198423,1.3038595990000001,103.8569551
FERNVALE PRIMARY SCHOOL,1 FERNVALE LANE PRO-TEACH SCHOOLCARE (FERNVALE) SINGAPORE 797701,797701,PRIMARY,797701,1.389979399,103.874101
TOWNSVILLE PRIMARY SCHOOL,3 ANG MO KIO AVENUE 10 TOWNSVILLE PRIMARY SCHOOL SINGAPORE 569730,569730,PRIMARY,569730,1.3603626340000001,103.8541855
RULANG PRIMARY SCHOOL,6 JURONG WEST STREET 52 YMCA SCC @ RULANG SINGAPORE 649295,649295,PRIMARY,649295,1.3471895319999998,103.71878609999999
QIFA PRIMARY SCHOOL,50 WEST COAST AVENUE QIFA PRIMARY SCHOOL SINGAPORE 128104,128104,PRIMARY,128104,1.312621542,103.75703
ZHANGDE PRIMARY SCHOOL,51 JALAN MEMBINA ZHANGDE PRIMARY SCHOOL SINGAPORE 169485,169485,PRIMARY,169485,1.28449822,103.826149
TAMPINES PRIMARY SCHOOL,250 TAMPINES STREET 12 TAMPINES PRIMARY SCHOOL SINGAPORE 529426,529426,PRIMARY,529426,1.3504863980000001,103.9435731
CHONGZHENG PRIMARY SCHOOL,1 TAMPINES STREET 21 CHONGZHENG PRIMARY SCHOOL SINGAPORE 529392,529392,PRIMARY,529392,1.350594769,103.9512252
XINGHUA PRIMARY SCHOOL,45 HOUGANG AVENUE 1 XINGHUA PRIMARY SCHOOL SINGAPORE 538882,538882,PRIMARY,538882,1.357996547,103.89021640000001
JIEMIN PRIMARY SCHOOL,2 YISHUN STREET 71 JIEMIN PRIMARY SCHOOL SINGAPORE 768515,768515,PRIMARY,768515,1.4276468519999999,103.8304804
FUCHUN PRIMARY SCHOOL,23 WOODLANDS AVENUE 1 FUCHUN PRIMARY SCHOOL SINGAPORE 739063,739063,PRIMARY,739063,1.430639768,103.77817519999999
BUKIT VIEW PRIMARY SCHOOL,18 BUKIT BATOK STREET 21 BUKIT VIEW PRIMARY SCHOOL SINGAPORE 659634,659634,PRIMARY,659634,1.3459452459999999,103.75358879999999
CEDAR PRIMARY SCHOOL,15 CEDAR AVENUE CEDAR PRIMARY SCHOOL SINGAPORE 349700,349700,PRIMARY,349700,1.3356412229999999,103.8754913
OPERA ESTATE PRIMARY SCHOOL,48 FIDELIO STREET OPERA ESTATE PRIMARY SCHOOL SINGAPORE 458436,458436,PRIMARY,458436,1.319968755,103.9237527
RIVER VALLEY PRIMARY SCHOOL,2 RIVER VALLEY GREEN RIVER VALLEY PRIMARY SCHOOL SINGAPORE 237993,237993,PRIMARY,237993,1.294183475,103.8360189
TELOK KURAU PRIMARY SCHOOL,50 BEDOK RESERVOIR ROAD KOWABUNGA KIDZ TREEHOUSE @ TELOK KURAU PRIMARY SINGAPORE 479239,479239,PRIMARY,479239,1.331045863,103.910934
YUMIN PRIMARY SCHOOL,3 TAMPINES STREET 21 YUMIN PRIMARY SCHOOL SINGAPORE 529393,529393,PRIMARY,529393,1.3514596030000001,103.9507161
SHUQUN PRIMARY SCHOOL,8 JURONG WEST STREET 51 NASCANS @ SHUQUN SINGAPORE 649332,649332,PRIMARY,649332,1.3476531040000002,103.7215237
GAN ENG SENG PRIMARY SCHOOL,100 REDHILL CLOSE GAN ENG SENG PRIMARY SCHOOL SINGAPORE 158901,158901,PRIMARY,158901,1.285955393,103.8152282
GONGSHANG PRIMARY SCHOOL,1 TAMPINES STREET 42 GONGSHANG PRIMARY SCHOOL SINGAPORE 529176,529176,PRIMARY,529176,1.357348982,103.9488719
HUAMIN PRIMARY SCHOOL,530 YISHUN RING ROAD SINGAPORE 768680,768680,PRIMARY,768680,1.42731881,103.84486340000001
XISHAN PRIMARY SCHOOL,8 YISHUN STREET 21 XISHAN PRIMARY SCHOOL SINGAPORE 768611,768611,PRIMARY,768611,1.433501455,103.83828929999999
PRINCESS ELIZABETH PRIMARY SCHOOL,30 BUKIT BATOK WEST AVENUE 3 PRINCESS ELIZABETH PRIMARY SCHOOL SINGAPORE 659163,659163,PRIMARY,659163,1.349194518,103.7409996
DAZHONG PRIMARY SCHOOL,35 BUKIT BATOK STREET 31 MOE KINDERGARTEN @ DAZHONG SINGAPORE 659441,659441,PRIMARY,659441,1.359101577,103.7481587
BEDOK GREEN PRIMARY SCHOOL,1 BEDOK SOUTH AVENUE 2 BEDOK GREEN PRIMARY SCHOOL SINGAPORE 469317,469317,PRIMARY,469317,1.323996276,103.93774499999999
LIANHUA PRIMARY SCHOOL,2 BUKIT BATOK STREET 52 LIANHUA PRIMARY SCHOOL SINGAPORE 659243,659243,PRIMARY,659243,1.3541550690000002,103.7542104
ZHONGHUA PRIMARY SCHOOL,12 SERANGOON AVENUE 4 ZHONGHUA PRIMARY SCHOOL SINGAPORE 556095,556095,PRIMARY,556095,1.360166735,103.8696959
PEIYING PRIMARY SCHOOL,651 YISHUN RING ROAD PEIYING PRIMARY SCHOOL SINGAPORE 768687,768687,PRIMARY,768687,1.417408192,103.8302995
KEMING PRIMARY SCHOOL,90 BUKIT BATOK EAST AVENUE 6 KEMING PRIMARY SCHOOL SINGAPORE 659762,659762,PRIMARY,659762,1.3452450530000002,103.7562645
CHANGKAT PRIMARY SCHOOL,11 SIMEI STREET 3 CHANGKAT PRIMARY SCHOOL SINGAPORE 529896,529896,PRIMARY,529896,1.340208008,103.95218340000001
ZHENGHUA PRIMARY SCHOOL,9 FAJAR ROAD ZHENGHUA PRIMARY SCHOOL SINGAPORE 679002,679002,PRIMARY,679002,1.3798023609999999,103.7691708
SOUTH VIEW PRIMARY SCHOOL,6 CHOA CHU KANG CENTRAL SOUTH VIEW PRIMARY SCHOOL SINGAPORE 689762,689762,PRIMARY,689762,1.381766725,103.74728979999999
PASIR RIS PRIMARY SCHOOL,5 PASIR RIS STREET 21 COMMIT LEARNING SCHOOLHOUSE @ PASIR RIS PRIMARY SINGAPORE 518968,518968,PRIMARY,518968,1.3724513269999998,103.96292270000001
CHUA CHU KANG PRIMARY SCHOOL,20 CHOA CHU KANG AVENUE 2 CHUA CHU KANG PRIMARY SCHOOL SINGAPORE 689905,689905,PRIMARY,689905,1.377743283,103.7418605
GREENRIDGE PRIMARY SCHOOL,11 JELAPANG ROAD GREENRIDGE PRIMARY SCHOOL SINGAPORE 677744,677744,PRIMARY,677744,1.3858737540000001,103.7678146
FARRER PARK PRIMARY SCHOOL,2 FARRER PARK ROAD FARRER PARK PRIMARY SCHOOL SINGAPORE 217567,217567,PRIMARY,217567,1.312504162,103.8509027
BUKIT TIMAH PRIMARY SCHOOL,111 LORONG KISMIS BUKIT TIMAH PRIMARY SCHOOL SINGAPORE 598112,598112,PRIMARY,598112,1.337749867,103.76685529999999
LAKESIDE PRIMARY SCHOOL,161 CORPORATION WALK WHEE!CANOPUS STUDENT CARE @ LAKESIDE PRIMARY SCHOOL SINGAPORE 618310,618310,PRIMARY,618310,1.338375696,103.7180969
BEACON PRIMARY SCHOOL,36 BUKIT PANJANG RING ROAD BEACON PRIMARY SCHOOL SINGAPORE 679944,679944,PRIMARY,679944,1.3842366769999999,103.77375440000002
INNOVA PRIMARY SCHOOL,80 WOODLANDS DRIVE 17 INNOVA PRIMARY SCHOOL SINGAPORE 737888,737888,PRIMARY,737888,1.429184592,103.7905571
GREENDALE PRIMARY SCHOOL,50 EDGEDALE PLAINS GREENDALE PRIMARY SCHOOL SINGAPORE 828848,828848,PRIMARY,828848,1.396402656,103.912566
ENDEAVOUR PRIMARY SCHOOL,10 ADMIRALTY LINK ENDEAVOUR PRIMARY SCHOOL SINGAPORE 757521,757521,PRIMARY,757521,1.45417629,103.81742729999999
NORTH VISTA PRIMARY SCHOOL,20 COMPASSVALE LINK NORTH VISTA PRIMARY SCHOOL SINGAPORE 544974,544974,PRIMARY,544974,1.382893394,103.8958542
ANCHOR GREEN PRIMARY SCHOOL,31 ANCHORVALE DRIVE ANCHOR GREEN PRIMARY SCHOOL SINGAPORE 544969,544969,PRIMARY,544969,1.390662478,103.8872561
HORIZON PRIMARY SCHOOL,61 EDGEDALE PLAINS HORIZON PRIMARY SCHOOL SINGAPORE 828819,828819,PRIMARY,828819,1.400008815,103.9130715
CANTONMENT PRIMARY SCHOOL,1 CANTONMENT CLOSE CANTONMENT PRIMARY SCHOOL SINGAPORE 088256,088256,PRIMARY,088256,1.275505441,103.8399227
FRONTIER PRIMARY SCHOOL,20 JURONG WEST STREET 61 LEARNING LEAP PTE LTD (FRONTIER PRIMARY SCHOOL) SINGAPORE 648200,648200,PRIMARY,648200,1.336643112,103.6996828
WESTWOOD PRIMARY SCHOOL,1 JURONG WEST STREET 73 WESTWOOD PRIMARY SCHOOL SINGAPORE 649188,649188,PRIMARY,649188,1.3471546319999999,103.7005267
PUNGGOL GREEN PRIMARY SCHOOL,98 PUNGGOL WALK PUNGGOL GREEN PRIMARY SCHOOL SINGAPORE 828772,828772,PRIMARY,828772,1.4018048730000001,103.89877290000001
PUNGGOL VIEW PRIMARY SCHOOL,9 PUNGGOL PLACE PCF SPARKLETOTS KCARE CENTRE@PUNGGOL VIEW SINGAPORE 828845,828845,PRIMARY,828845,1.405145826,103.9051564
SENGKANG GREEN PRIMARY SCHOOL,15 FERNVALE ROAD MOE KINDERGARTEN @ SENGKANG GREEN SINGAPORE 797636,797636,PRIMARY,797636,1.392540093,103.8749849
SPRINGDALE PRIMARY SCHOOL,71 ANCHORVALE LINK MOE KINDERGARTEN @ SPRINGDALE SINGAPORE 544799,544799,PRIMARY,544799,1.394754077,103.8896116
PALM VIEW PRIMARY SCHOOL,150 COMPASSVALE BOW PRO-TEACH SCHOOLCARE (PALM VIEW) SINGAPORE 544822,544822,PRIMARY,544822,1.383840756,103.8912151
RIVERSIDE PRIMARY SCHOOL,110 WOODLANDS CRESCENT MOE KINDERGARTEN @ RIVERSIDE SINGAPORE 737803,737803,PRIMARY,737803,1.4470473430000002,103.80183199999999
WEST SPRING PRIMARY SCHOOL,60 BUKIT PANJANG RING ROAD MOE KINDERGARTEN @ WEST SPRING SINGAPORE 679946,679946,PRIMARY,679946,1.3894341430000001,103.7661934
ALEXANDRA PRIMARY SCHOOL,2A PRINCE CHARLES CRESCENT ALEXANDRA PRIMARY SCHOOL SINGAPORE 159016,159016,PRIMARY,159016,1.291299035,103.82394079999999
NORTHOAKS PRIMARY SCHOOL,61 SEMBAWANG DRIVE NORTHOAKS PRIMARY SCHOOL SINGAPORE 757622,757622,PRIMARY,757622,1.456666873,103.81361
ANGSANA PRIMARY SCHOOL,3 TAMPINES STREET 22 LEARNING LEAP PTE LTD [ANGSANA PRIMARY SCHOOL] SINGAPORE 529366,529366,PRIMARY,529366,1.348465689,103.9515771
PUNGGOL COVE PRIMARY SCHOOL,52 SUMANG WALK PUNGGOL COVE PRIMARY SCHOOL SINGAPORE 828674,828674,PRIMARY,828674,1.411563565,103.8989704
OASIS PRIMARY SCHOOL,71 EDGEFIELD PLAINS OASIS PRIMARY SCHOOL SINGAPORE 828716,828716,PRIMARY,828716,1.40440927,103.9109964
WATERWAY PRIMARY SCHOOL,70 PUNGGOL DRIVE WATERWAY PRIMARY SCHOOL SINGAPORE 828802,828802,PRIMARY,828802,1.39915421,103.9186708
FERN GREEN PRIMARY SCHOOL,70 FERNVALE LINK FERN GREEN PRIMARY SCHOOL SINGAPORE 797538,797538,PRIMARY,797538,1.397620783,103.88021009999999
FIRST TOA PAYOH PRIMARY SCHOOL,7 LORONG 8 TOA PAYOH NASCANS FIRST TOA PAYOH STUDENT CARE CENTRE SINGAPORE 319252,319252,PRIMARY,319252,1.340322987,103.85552990000001
NEW TOWN PRIMARY SCHOOL,300 TANGLIN HALT ROAD NEW TOWN CAREHUT SINGAPORE 148812,148812,PRIMARY,148812,1.299811389,103.7999648
BOON LAY GARDEN PRIMARY SCHOOL,20 BOON LAY DRIVE BOON LAY GARDEN PRIMARY SCHOOL SINGAPORE 649930,649930,PRIMARY,649930,1.3428467080000002,103.712969
MARSILING PRIMARY SCHOOL,31 WOODLANDS CENTRE ROAD MARSILING PRIMARY SCHOOL SINGAPORE 738927,738927,PRIMARY,738927,1.434423117,103.77369770000001
PEI TONG PRIMARY SCHOOL,15 CLEMENTI AVENUE 5 PEI TONG PRIMARY SCHOOL SINGAPORE 129857,129857,PRIMARY,129857,1.316148017,103.76757629999999
YUHUA PRIMARY SCHOOL,158 JURONG EAST STREET 24 YUHUA PRIMARY SCHOOL SINGAPORE 609558,609558,PRIMARY,609558,1.3429198180000002,103.74086109999999
FENGSHAN PRIMARY SCHOOL,307 BEDOK NORTH ROAD FENGSHAN PRIMARY SCHOOL SINGAPORE 469680,469680,PRIMARY,469680,1.330324955,103.9318854
YU NENG PRIMARY SCHOOL,56 BEDOK NORTH STREET 3 YU NENG PRIMARY SCHOOL SINGAPORE 469623,469623,PRIMARY,469623,1.3339038090000002,103.9320341
XINMIN PRIMARY SCHOOL,9 HOUGANG AVENUE 8 XINMIN PRIMARY SCHOOL SINGAPORE 538784,538784,PRIMARY,538784,1.371414726,103.88303909999999
YANGZHENG PRIMARY SCHOOL,15 SERANGOON AVENUE 3 BIG HEART STUDENT CARE @ YANGZHENG SINGAPORE 556108,556108,PRIMARY,556108,1.3489768080000002,103.8684671
JUYING PRIMARY SCHOOL,31 JURONG WEST STREET 91 JUYING PRIMARY SCHOOL SINGAPORE 649037,649037,PRIMARY,649037,1.338951451,103.68783309999999
JUNYUAN PRIMARY SCHOOL,2 TAMPINES STREET 91 JUNYUAN PRIMARY SCHOOL SINGAPORE 528906,528906,PRIMARY,528906,1.347891544,103.9396469
NORTHLAND PRIMARY SCHOOL,15 YISHUN AVENUE 4 NASCANS NORTHLAND STUDENT CARE CENTRE SINGAPORE 769026,769026,PRIMARY,769026,1.4213040419999998,103.8407929
NAVAL BASE PRIMARY SCHOOL,7 YISHUN AVENUE 4 NAVAL BASE PRIMARY SCHOOL SINGAPORE 769028,769028,PRIMARY,769028,1.4162801530000002,103.8387977
XINGNAN PRIMARY SCHOOL,5 JURONG WEST STREET 91 SHG STUDENT CARE (XINGNAN PRIMARY SCHOOL) SINGAPORE 649036,649036,PRIMARY,649036,1.34268487,103.687724
QIHUA PRIMARY SCHOOL,5 WOODLANDS STREET 81 QIHUA PRIMARY SCHOOL SINGAPORE 738525,738525,PRIMARY,738525,1.442035966,103.78833979999999
GUANGYANG PRIMARY SCHOOL,6 BISHAN STREET 12 GUANGYANG PRIMARY SCHOOL SINGAPORE 579806,579806,PRIMARY,579806,1.346042665,103.8492848
TAMPINES NORTH PRIMARY SCHOOL,30 TAMPINES AVENUE 9 TAMPINES NORTH PRIMARY SCHOOL SINGAPORE 529565,529565,PRIMARY,529565,1.36069172,103.9489368
ELIAS PARK PRIMARY SCHOOL,11 PASIR RIS STREET 52 AFTERSCHOOL @ ELIAS PARK PRIMARY SCHOOL SINGAPORE 518866,518866,PRIMARY,518866,1.375056963,103.94528940000001
AHMAD IBRAHIM PRIMARY SCHOOL,10 YISHUN STREET 11 AHMAD IBRAHIM PRIMARY SCHOOL SINGAPORE 768643,768643,PRIMARY,768643,1.4336812069999998,103.8329243
NORTH VIEW PRIMARY SCHOOL,210 YISHUN AVENUE 6 NORTH VIEW PRIMARY SCHOOL SINGAPORE 768960,768960,PRIMARY,768960,1.4279434030000002,103.84836829999999
PIONEER PRIMARY SCHOOL,23 JURONG WEST STREET 81 PIONEER PRIMARY SCHOOL SINGAPORE 649076,649076,PRIMARY,649076,1.3487209269999998,103.6948679
PUNGGOL PRIMARY SCHOOL,61 HOUGANG AVENUE 8 PUNGGOL PRIMARY SCHOOL SINGAPORE 538787,538787,PRIMARY,538787,1.3782006230000001,103.89475329999999
PARK VIEW PRIMARY SCHOOL,60 PASIR RIS DRIVE 1 LIFE STUDENT CARE - PARK VIEW PRIMARY SINGAPORE 519524,519524,PRIMARY,519524,1.378016876,103.9392022
ADMIRALTY PRIMARY SCHOOL,11 WOODLANDS CIRCLE THE LEARNING HARBOUR @ ADMIRALTY PRIMARY SCHOOL SINGAPORE 738907,738907,PRIMARY,738907,1.442549639,103.8002137
KRANJI PRIMARY SCHOOL,11 CHOA CHU KANG STREET 54 KRANJI PRIMARY SCHOOL SINGAPORE 689189,689189,PRIMARY,689189,1.3939100309999999,103.74741540000001
SENG KANG PRIMARY SCHOOL,21 COMPASSVALE WALK SENG KANG PRIMARY SCHOOL SINGAPORE 545166,545166,PRIMARY,545166,1.389250457,103.89952790000001
WOODLANDS RING PRIMARY SCHOOL,11 WOODLANDS RING ROAD WOODLANDS RING PRIMARY SCHOOL SINGAPORE 738240,738240,PRIMARY,738240,1.434769705,103.7978411
WEST VIEW PRIMARY SCHOOL,31 SENJA ROAD WEST VIEW PRIMARY SCHOOL SINGAPORE 677742,677742,PRIMARY,677742,1.383590574,103.7602891
WHITE SANDS PRIMARY SCHOOL,2 PASIR RIS STREET 11 WHITE SANDS PRIMARY SCHOOL SINGAPORE 519075,519075,PRIMARY,519075,1.365517813,103.9609482
UNITY PRIMARY SCHOOL,21 CHOA CHU KANG CRESCENT UNITY PRIMARY SCHOOL SINGAPORE 688268,688268,PRIMARY,688268,1.40282339,103.7469934
CANBERRA PRIMARY SCHOOL,21 ADMIRALTY DRIVE CANBERRA PRIMARY SCHOOL SINGAPORE 757714,757714,PRIMARY,757714,1.4510640069999998,103.8159709
RIVERVALE PRIMARY SCHOOL,80 RIVERVALE DRIVE PRO-TEACH SCHOOLCARE (RIVERVALE) LLP SINGAPORE 545092,545092,PRIMARY,545092,1.393414025,103.90455949999999
JURONG WEST PRIMARY SCHOOL,30 JURONG WEST STREET 61 JURONG WEST PRIMARY SCHOOL SINGAPORE 648368,648368,PRIMARY,648368,1.3392437529999999,103.6988958
EAST SPRING PRIMARY SCHOOL,31 TAMPINES STREET 33 NASCANS @ EAST SPRING SINGAPORE 529258,529258,PRIMARY,529258,1.3527701380000001,103.96174309999999
EVERGREEN PRIMARY SCHOOL,31 WOODLANDS CIRCLE EVERGREEN PRIMARY SCHOOL SINGAPORE 738908,738908,PRIMARY,738908,1.4441483590000002,103.7945453
COMPASSVALE PRIMARY SCHOOL,21 COMPASSVALE STREET PRO-TEACH SCHOOLCARE (COMPASSVALE) SINGAPORE 545091,545091,PRIMARY,545091,1.394445295,103.8978122
WOODGROVE PRIMARY SCHOOL,2 WOODLANDS DRIVE 14 WOODGROVE PRIMARY SCHOOL SINGAPORE 738079,738079,PRIMARY,738079,1.43305806,103.7903896
SEMBAWANG PRIMARY SCHOOL,10 SEMBAWANG DRIVE SEMBAWANG PRIMARY SCHOOL SINGAPORE 757715,757715,PRIMARY,757715,1.445043645,103.8210215
CONCORD PRIMARY SCHOOL,3 CHOA CHU KANG AVENUE 4 CONCORD PRIMARY SCHOOL SINGAPORE 689814,689814,PRIMARY,689814,1.380411513,103.7361428
NORTH SPRING PRIMARY SCHOOL,1 RIVERVALE STREET NORTH SPRING PRIMARY SCHOOL SINGAPORE 545088,545088,PRIMARY,545088,1.3875282359999999,103.903513
YEW TEE PRIMARY SCHOOL,10 CHOA CHU KANG STREET 64 PRO-TEACH SCHOOLCARE (YEW TEE PRIMARY) SINGAPORE 689100,689100,PRIMARY,689100,1.396726035,103.751818
HOUGANG PRIMARY SCHOOL,1 HOUGANG STREET 93 HOUGANG PRIMARY SCHOOL SINGAPORE 534238,534238,PRIMARY,534238,1.378039861,103.8811662
MERIDIAN PRIMARY SCHOOL,20 PASIR RIS STREET 71 MERIDIAN PRIMARY SCHOOL SINGAPORE 518798,518798,PRIMARY,518798,1.3759708309999998,103.9351432
GREENWOOD PRIMARY SCHOOL,11 WOODLANDS DRIVE 62 GREENWOOD PRIMARY SCHOOL SINGAPORE 737942,737942,PRIMARY,737942,1.4401104980000001,103.80462929999999
ANDERSON PRIMARY SCHOOL,19 ANG MO KIO AVENUE 9 ANDERSON PRIMARY SCHOOL SINGAPORE 569785,569785,PRIMARY,569785,1.384665965,103.84123840000001
WELLINGTON PRIMARY SCHOOL,10 WELLINGTON CIRCLE PRO-TEACH SCHOOLCARE (WELLINGTON) SINGAPORE 757702,757702,PRIMARY,757702,1.4518908330000002,103.82234190000001
EDGEFIELD PRIMARY SCHOOL,41 EDGEFIELD PLAINS EDGEFIELD PRIMARY SCHOOL SINGAPORE 828869,828869,PRIMARY,828869,1.400297835,103.9074305
WEST GROVE PRIMARY SCHOOL,1 JURONG WEST STREET 72 WEST GROVE PRIMARY SCHOOL SINGAPORE 649223,649223,PRIMARY,649223,1.3447121219999998,103.6989642
CASUARINA PRIMARY SCHOOL,30 PASIR RIS STREET 41 CASUARINA PRIMARY SCHOOL SINGAPORE 518935,518935,PRIMARY,518935,1.372789016,103.9572913
CLEMENTI PRIMARY SCHOOL,8 CLEMENTI AVENUE 3 CLEMENTI PRIMARY SCHOOL SINGAPORE 129903,129903,PRIMARY,129903,1.315808563,103.76305479999999
TANJONG KATONG PRIMARY SCHOOL,860 NEW UPPER CHANGI ROAD NEW UPPER CHANGI ROAD SINGAPORE 467353,467353,PRIMARY,467353,1.32401712,103.93896679999999
ANDERSON SECONDARY SCHOOL,10 ANG MO KIO STREET 53 ANDERSON SECONDARY SCHOOL SINGAPORE 569206,569206,SECONDARY,569206,1.374242189,103.85143000000001
BARTLEY SECONDARY SCHOOL,10 JALAN BUNGA RAMPAI BARTLEY SECONDARY SCHOOL SINGAPORE 538403,538403,SECONDARY,538403,1.34001742,103.88245500000001
BEATTY SECONDARY SCHOOL,1 TOA PAYOH NORTH BEATTY SECONDARY SCHOOL SINGAPORE 318990,318990,SECONDARY,318990,1.341790511,103.85206490000002
CEDAR GIRLS' SECONDARY SCHOOL,1 CEDAR AVENUE CEDAR GIRLS' SECONDARY SCHOOL SINGAPORE 349692,349692,SECONDARY,349692,1.334527365,103.873791
CRESCENT GIRLS' SCHOOL,357 TANGLIN ROAD CRESCENT GIRLS' SCHOOL SINGAPORE 247961,247961,SECONDARY,247961,1.293305114,103.8176348
GAN ENG SENG SCHOOL,1 HENDERSON ROAD GAN ENG SENG SCHOOL SINGAPORE 159561,159561,SECONDARY,159561,1.289071145,103.8237337
QUEENSWAY SECONDARY SCHOOL,2A MARGARET DRIVE QUEENSWAY SECONDARY SCHOOL SINGAPORE 149295,149295,SECONDARY,149295,1.300475167,103.80172359999999
RAFFLES GIRLS' SCHOOL (SECONDARY),20 ANDERSON ROAD SINGAPORE 259978,259978,SECONDARY,259978,1.311695028,103.82895959999999
RAFFLES INSTITUTION,1 RAFFLES INSTITUTION LANE RAFFLES INSTITUTION (S.RAJARATNAM BLOCK) SINGAPORE 575954,575954,MIXED LEVEL,575954,1.346274154,103.8441309
SERANGOON SECONDARY SCHOOL,11 UPPER SERANGOON VIEW SERANGOON SECONDARY SCHOOL SINGAPORE 534237,534237,SECONDARY,534237,1.375555333,103.9019104
COMMONWEALTH SECONDARY SCHOOL,698 WEST COAST ROAD COMMONWEALTH SECONDARY SCHOOL SINGAPORE 608784,608784,SECONDARY,608784,1.3191280779999999,103.7457555
TANJONG KATONG GIRLS' SCHOOL,2 BEDOK SOUTH ROAD SINGAPORE 469268,469268,SECONDARY,469268,1.32203912,103.9270308
VICTORIA SCHOOL,2 SIGLAP LINK VICTORIA SCHOOL SINGAPORE 448880,448880,SECONDARY,448880,1.308356824,103.9276115
WHITLEY SECONDARY SCHOOL,30 BISHAN STREET 24 WHITLEY SECONDARY SCHOOL SINGAPORE 579747,579747,SECONDARY,579747,1.355494624,103.8425639
YUHUA SECONDARY SCHOOL,35 JURONG WEST STREET 41 YUHUA SECONDARY SCHOOL SINGAPORE 649406,649406,SECONDARY,649406,1.347218449,103.72258149999999
YISHUN SECONDARY SCHOOL,4 YISHUN STREET 71 YISHUN SECONDARY SCHOOL SINGAPORE 768516,768516,SECONDARY,768516,1.4281320119999998,103.82881479999999
BENDEMEER SECONDARY SCHOOL,1 SAINT WILFRED ROAD BENDEMEER SECONDARY SCHOOL SINGAPORE 327919,327919,SECONDARY,327919,1.324611113,103.86097029999999
FUCHUN SECONDARY SCHOOL,21 WOODLANDS AVENUE 1 FUCHUN SECONDARY SCHOOL SINGAPORE 739062,739062,SECONDARY,739062,1.430833988,103.777148
ANG MO KIO SECONDARY SCHOOL,6 ANG MO KIO STREET 22 ANG MO KIO SECONDARY SCHOOL SINGAPORE 569362,569362,SECONDARY,569362,1.367359004,103.84260040000001
BEDOK SOUTH SECONDARY SCHOOL,1 JALAN LANGGAR BEDOK BEDOK SOUTH SECONDARY SCHOOL SINGAPORE 468585,468585,SECONDARY,468585,1.325653417,103.9506212
CLEMENTI TOWN SECONDARY SCHOOL,10 CLEMENTI AVENUE 3 CLEMENTI TOWN SECONDARY SCHOOL SINGAPORE 129904,129904,SECONDARY,129904,1.315474974,103.7620787
TEMASEK SECONDARY SCHOOL,600 UPPER EAST COAST ROAD TEMASEK SECONDARY SCHOOL SINGAPORE 465561,465561,SECONDARY,465561,1.315770985,103.9471475
MAYFLOWER SECONDARY SCHOOL,2 ANG MO KIO STREET 21 MAYFLOWER SECONDARY SCHOOL SINGAPORE 569384,569384,SECONDARY,569384,1.3683372459999998,103.8354387
TAMPINES SECONDARY SCHOOL,252 TAMPINES STREET 12 TAMPINES SECONDARY SCHOOL SINGAPORE 529427,529427,SECONDARY,529427,1.349434801,103.9439891
BUKIT VIEW SECONDARY SCHOOL,16 BUKIT BATOK STREET 21 BUKIT VIEW SECONDARY SCHOOL SINGAPORE 659633,659633,SECONDARY,659633,1.3457231509999998,103.75227779999999
WOODLANDS SECONDARY SCHOOL,11 MARSILING ROAD WOODLANDS SECONDARY SCHOOL SINGAPORE 739111,739111,SECONDARY,739111,1.439183317,103.7744988
BOWEN SECONDARY SCHOOL,2 LORONG NAPIRI BOWEN SECONDARY SCHOOL SINGAPORE 547529,547529,SECONDARY,547529,1.370751073,103.877459
BUKIT BATOK SECONDARY SCHOOL,50 BUKIT BATOK WEST AVENUE 8 BUKIT BATOK SECONDARY SCHOOL SINGAPORE 658962,658962,SECONDARY,658962,1.348351215,103.74087340000001
YISHUN TOWN SECONDARY SCHOOL,6 YISHUN STREET 21 YISHUN TOWN SECONDARY SCHOOL SINGAPORE 768610,768610,SECONDARY,768610,1.432604239,103.83801170000001
HOUGANG SECONDARY SCHOOL,2 HOUGANG STREET 93 HOUGANG SECONDARY SCHOOL SINGAPORE 534256,534256,SECONDARY,534256,1.37815588,103.8818716
NAN HUA HIGH SCHOOL,41 CLEMENTI AVENUE 1 NAN HUA HIGH SCHOOL SINGAPORE 129956,129956,SECONDARY,129956,1.308141211,103.76901540000001
HILLGROVE SECONDARY SCHOOL,10 BUKIT BATOK STREET 52 HILLGROVE SECONDARY SCHOOL SINGAPORE 659250,659250,SECONDARY,659250,1.352735494,103.75305240000002
XINMIN SECONDARY SCHOOL,11 HOUGANG AVENUE 8 XINMIN SECONDARY SCHOOL SINGAPORE 538789,538789,SECONDARY,538789,1.3726428999999998,103.8830505
GREENRIDGE SECONDARY SCHOOL,32 BUKIT PANJANG RING ROAD GREENRIDGE SECONDARY SCHOOL SINGAPORE 679938,679938,SECONDARY,679938,1.381924186,103.773617
SPRINGFIELD SECONDARY SCHOOL,30 TAMPINES AVENUE 8 SPRINGFIELD SECONDARY SCHOOL SINGAPORE 529593,529593,SECONDARY,529593,1.3495756319999999,103.93021829999999
CHUA CHU KANG SECONDARY SCHOOL,3 TECK WHYE CRESCENT CHUA CHU KANG SECONDARY SCHOOL SINGAPORE 688845,688845,SECONDARY,688845,1.3832748380000002,103.7520245
DAMAI SECONDARY SCHOOL,4800 BEDOK RESERVOIR ROAD DAMAI SECONDARY SCHOOL SINGAPORE 479229,479229,SECONDARY,479229,1.33754548,103.9264171
NORTHLAND SECONDARY SCHOOL,3 YISHUN STREET 22 NORTHLAND SECONDARY SCHOOL SINGAPORE 768578,768578,SECONDARY,768578,1.43573962,103.8401047
PEIRCE SECONDARY SCHOOL,10 SIN MING WALK PEIRCE SECONDARY SCHOOL SINGAPORE 575566,575566,SECONDARY,575566,1.366131676,103.8299104
JURONGVILLE SECONDARY SCHOOL,202 JURONG EAST AVENUE 1 JURONGVILLE SECONDARY SCHOOL SINGAPORE 609790,609790,SECONDARY,609790,1.351549559,103.7291127
FAJAR SECONDARY SCHOOL,31 GANGSA ROAD FAJAR SECONDARY SCHOOL SINGAPORE 678972,678972,SECONDARY,678972,1.375565392,103.7638819
KRANJI SECONDARY SCHOOL,38 TECK WHYE CRESCENT SINGAPORE 688945,688945,SECONDARY,688945,1.38169399,103.7564934
JUYING SECONDARY SCHOOL,33 JURONG WEST STREET 91 JUYING SECONDARY SCHOOL SINGAPORE 649038,649038,SECONDARY,649038,1.338178835,103.68720649999999
WEST SPRING SECONDARY SCHOOL,61 SENJA ROAD WEST SPRING SECONDARY SCHOOL SINGAPORE 677737,677737,SECONDARY,677737,1.387804339,103.7601475
JURONG WEST SECONDARY SCHOOL,61 JURONG WEST STREET 65 JURONG WEST SECONDARY SCHOOL SINGAPORE 648348,648348,SECONDARY,648348,1.335256345,103.70209809999999
BEDOK GREEN SECONDARY SCHOOL,360 BEDOK NORTH AVENUE 3 BEDOK GREEN SECONDARY SCHOOL SINGAPORE 469722,469722,SECONDARY,469722,1.333826681,103.9355132
PUNGGOL SECONDARY SCHOOL,51 EDGEFIELD PLAINS PUNGGOL SECONDARY SCHOOL SINGAPORE 828870,828870,SECONDARY,828870,1.402126295,103.9091193
NORTH VISTA SECONDARY SCHOOL,11 RIVERVALE LINK NORTH VISTA SECONDARY SCHOOL SINGAPORE 545081,545081,SECONDARY,545081,1.381252014,103.8989269
ADMIRALTY SECONDARY SCHOOL,31 WOODLANDS CRESCENT ADMIRALTY SECONDARY SCHOOL SINGAPORE 737916,737916,SECONDARY,737916,1.445890689,103.80239820000001
PEI HWA SECONDARY SCHOOL,21 FERNVALE LINK PEI HWA SECONDARY SCHOOL SINGAPORE 797702,797702,SECONDARY,797702,1.3903804569999998,103.87859350000001
GREENDALE SECONDARY SCHOOL,51 EDGEDALE PLAINS GREENDALE SECONDARY SCHOOL SINGAPORE 828866,828866,SECONDARY,828866,1.3972808,103.9115758
EDGEFIELD SECONDARY SCHOOL,36 PUNGGOL FIELD EDGEFIELD SECONDARY SCHOOL SINGAPORE 828814,828814,SECONDARY,828814,1.400179295,103.9021412
MERIDIAN SECONDARY SCHOOL,31 PASIR RIS STREET 51 MERIDIAN SECONDARY SCHOOL SINGAPORE 518901,518901,SECONDARY,518901,1.3671073519999999,103.9492736
LOYANG VIEW SECONDARY SCHOOL,12 PASIR RIS STREET 11 LOYANG VIEW SECONDARY SCHOOL SINGAPORE 519073,519073,SECONDARY,519073,1.366658318,103.9580664
DUNMAN HIGH SCHOOL,10 TANJONG RHU ROAD DUNMAN HIGH SCHOOL SINGAPORE 436895,436895,MIXED LEVEL,436895,1.2991253040000001,103.8828617
RIVER VALLEY HIGH SCHOOL,6 BOON LAY AVENUE SINGAPORE 649961,649961,MIXED LEVEL,649961,1.344595842,103.7081907
AHMAD IBRAHIM SECONDARY SCHOOL,751 YISHUN AVENUE 7 AHMAD IBRAHIM SECONDARY SCHOOL SINGAPORE 768928,768928,SECONDARY,768928,1.436235146,103.8299865
BROADRICK SECONDARY SCHOOL,61 DAKOTA CRESCENT BROADRICK SECONDARY SCHOOL SINGAPORE 399935,399935,SECONDARY,399935,1.30750538,103.8866754
BUKIT MERAH SECONDARY SCHOOL,10 LENGKOK BAHRU BUKIT MERAH SECONDARY SCHOOL SINGAPORE 159050,159050,SECONDARY,159050,1.285751537,103.81320840000001
BUKIT PANJANG GOVT. HIGH SCHOOL,7 CHOA CHU KANG AVENUE 4 BUKIT PANJANG GOVERNMENT HIGH SCHOOL SINGAPORE 689809,689809,SECONDARY,689809,1.3821367219999998,103.7381344
DUNMAN SECONDARY SCHOOL,21 TAMPINES STREET 45 DUNMAN SECONDARY SCHOOL SINGAPORE 529093,529093,SECONDARY,529093,1.36054751,103.9562073
JURONG SECONDARY SCHOOL,31 YUAN CHING ROAD JURONG SECONDARY SCHOOL SINGAPORE 618652,618652,SECONDARY,618652,1.3301473540000002,103.7240997
NAVAL BASE SECONDARY SCHOOL,901 YISHUN RING ROAD NAVAL BASE SECONDARY SCHOOL SINGAPORE 768689,768689,SECONDARY,768689,1.4192452930000001,103.8310441
OUTRAM SECONDARY SCHOOL,3 YORK HILL OUTRAM SECONDARY SCHOOL SINGAPORE 168622,168622,SECONDARY,168622,1.286387486,103.8370728
YIO CHU KANG SECONDARY SCHOOL,3063 ANG MO KIO AVENUE 5 YIO CHU KANG SECONDARY SCHOOL SINGAPORE 569868,569868,SECONDARY,569868,1.3782633530000001,103.8418094
YUAN CHING SECONDARY SCHOOL,103 YUAN CHING ROAD YUAN CHING SECONDARY SCHOOL SINGAPORE 618654,618654,SECONDARY,618654,1.3418918709999998,103.7206308
BOON LAY SECONDARY SCHOOL,11 JURONG WEST STREET 65 BOON LAY SECONDARY SCHOOL SINGAPORE 648354,648354,SECONDARY,648354,1.3432237230000001,103.70170290000002
BEDOK VIEW SECONDARY SCHOOL,6 BEDOK SOUTH AVENUE 3 BEDOK VIEW SECONDARY SCHOOL SINGAPORE 469293,469293,SECONDARY,469293,1.323999396,103.9434752
HUA YI SECONDARY SCHOOL,60 JURONG WEST STREET 42 HUA YI SECONDARY SCHOOL SINGAPORE 649371,649371,SECONDARY,649371,1.3523562969999998,103.7217266
DEYI SECONDARY SCHOOL,1 ANG MO KIO STREET 42 DEYI SECONDARY SCHOOL SINGAPORE 569277,569277,SECONDARY,569277,1.3673474209999998,103.85193609999999
PING YI SECONDARY SCHOOL,61 CHAI CHEE STREET PING YI SECONDARY SCHOOL SINGAPORE 468980,468980,SECONDARY,468980,1.327140285,103.9208358
PEICAI SECONDARY SCHOOL,10 SERANGOON AVENUE 4 PEICAI SECONDARY SCHOOL SINGAPORE 556094,556094,SECONDARY,556094,1.3592732490000001,103.8704923
PASIR RIS SECONDARY SCHOOL,390 TAMPINES STREET 21 PASIR RIS SECONDARY SCHOOL SINGAPORE 529400,529400,SECONDARY,529400,1.354639566,103.9486147
GUANGYANG SECONDARY SCHOOL,8 BISHAN STREET 12 GUANGYANG SECONDARY SCHOOL SINGAPORE 579807,579807,SECONDARY,579807,1.344673253,103.8505502
RIVERSIDE SECONDARY SCHOOL,3 WOODLANDS STREET 81 RIVERSIDE SECONDARY SCHOOL SINGAPORE 738524,738524,SECONDARY,738524,1.441077949,103.7883135
ZHONGHUA SECONDARY SCHOOL,13 SERANGOON AVENUE 3 ZHONGHUA SECONDARY SCHOOL SINGAPORE 556123,556123,SECONDARY,556123,1.3490973609999999,103.8698
SWISS COTTAGE SECONDARY SCHOOL,3 BUKIT BATOK STREET 34 SWISS COTTAGE SECONDARY SCHOOL SINGAPORE 659322,659322,SECONDARY,659322,1.3643339069999998,103.75067370000001
YUSOF ISHAK SECONDARY SCHOOL,11 BUKIT BATOK STREET 25 YUSOF ISHAK SECONDARY SCHOOL SINGAPORE 658712,658712,SECONDARY,658712,1.3423337780000002,103.7600131
CHANGKAT CHANGI SECONDARY SCHOOL,23 SIMEI STREET 3 CHANGKAT CHANGI SECONDARY SCHOOL SINGAPORE 529894,529894,SECONDARY,529894,1.34036114,103.9527251
TECK WHYE SECONDARY SCHOOL,31 TECK WHYE CRESCENT TECK WHYE SECONDARY SCHOOL SINGAPORE 688848,688848,SECONDARY,688848,1.383348181,103.7551824
DUNEARN SECONDARY SCHOOL,21 BUKIT BATOK WEST AVENUE 2 DUNEARN SECONDARY SCHOOL SINGAPORE 659204,659204,SECONDARY,659204,1.363638093,103.7450033
NEW TOWN SECONDARY SCHOOL,1020 DOVER ROAD NEW TOWN SECONDARY SCHOOL SINGAPORE 139657,139657,SECONDARY,139657,1.309986316,103.77324899999999
QUEENSTOWN SECONDARY SCHOOL,1 STRATHMORE ROAD QUEENSTOWN SECONDARY SCHOOL SINGAPORE 148800,148800,SECONDARY,148800,1.2935332940000002,103.8131755
SERANGOON GARDEN SECONDARY SCHOOL,21 SERANGOON NORTH AVENUE 1 SERANGOON GARDEN SECONDARY SCHOOL SINGAPORE 555889,555889,SECONDARY,555889,1.3698904840000001,103.8691497
TANGLIN SECONDARY SCHOOL,301 WEST COAST ROAD TANGLIN SECONDARY SCHOOL SINGAPORE 127391,127391,SECONDARY,127391,1.3097734779999999,103.75821540000001
TANJONG KATONG SECONDARY SCHOOL,130 HAIG ROAD TANJONG KATONG SECONDARY SCHOOL SINGAPORE 438796,438796,SECONDARY,438796,1.3085833740000001,103.89733009999999
WOODLANDS RING SECONDARY SCHOOL,10 WOODLANDS RING ROAD WOODLANDS RING SECONDARY SCHOOL SINGAPORE 738239,738239,SECONDARY,738239,1.4361136780000001,103.80052049999999
ORCHID PARK SECONDARY SCHOOL,10 YISHUN STREET 81 ORCHID PARK SECONDARY SCHOOL SINGAPORE 768454,768454,SECONDARY,768454,1.4148881869999999,103.8383349
SEMBAWANG SECONDARY SCHOOL,30 SEMBAWANG CRESCENT SEMBAWANG SECONDARY SCHOOL SINGAPORE 757704,757704,SECONDARY,757704,1.4453150209999999,103.8168433
SENG KANG SECONDARY SCHOOL,10 COMPASSVALE LANE SENG KANG SECONDARY SCHOOL SINGAPORE 545090,545090,SECONDARY,545090,1.38609933,103.89839309999999
JUNYUAN SECONDARY SCHOOL,11 TAMPINES STREET 84 JUNYUAN SECONDARY SCHOOL SINGAPORE 528933,528933,SECONDARY,528933,1.3533412409999999,103.93341140000001
EAST SPRING SECONDARY SCHOOL,30 TAMPINES STREET 34 EAST SPRING SECONDARY SCHOOL SINGAPORE 529231,529231,SECONDARY,529231,1.3567583,103.9611048
UNITY SECONDARY SCHOOL,20 CHOA CHU KANG STREET 62 UNITY SECONDARY SCHOOL SINGAPORE 689143,689143,SECONDARY,689143,1.3996424680000001,103.7460361
NORTHBROOKS SECONDARY SCHOOL,585 YISHUN RING ROAD NORTHBROOKS SECONDARY SCHOOL SINGAPORE 768692,768692,SECONDARY,768692,1.420881025,103.8450603
PASIR RIS CREST SECONDARY SCHOOL,11 PASIR RIS STREET 41 PASIR RIS CREST SECONDARY SCHOOL SINGAPORE 518934,518934,SECONDARY,518934,1.3723439080000002,103.95936259999999
FUHUA SECONDARY SCHOOL,5 JURONG WEST STREET 41 FUHUA SECONDARY SCHOOL SINGAPORE 649410,649410,SECONDARY,649410,1.3468798969999998,103.7267597
MARSILING SECONDARY SCHOOL,12 MARSILING ROAD MARSILING SECONDARY SCHOOL SINGAPORE 739110,739110,SECONDARY,739110,1.4366442480000001,103.77600809999998
WOODGROVE SECONDARY SCHOOL,3 WOODLANDS AVENUE 6 WOODGROVE SECONDARY SCHOOL SINGAPORE 738990,738990,SECONDARY,738990,1.428628315,103.796304
ZHENGHUA SECONDARY SCHOOL,91 SENJA ROAD ZHENGHUA SECONDARY SCHOOL SINGAPORE 677741,677741,SECONDARY,677741,1.388197023,103.76525229999999
REGENT SECONDARY SCHOOL,50 CHOA CHU KANG NORTH 5 REGENT SECONDARY SCHOOL SINGAPORE 689621,689621,SECONDARY,689621,1.393094082,103.7506856
KENT RIDGE SECONDARY SCHOOL,147 WEST COAST ROAD KENT RIDGE SECONDARY SCHOOL SINGAPORE 127368,127368,SECONDARY,127368,1.301352887,103.7649275
WESTWOOD SECONDARY SCHOOL,11 JURONG WEST STREET 25 WESTWOOD SECONDARY SCHOOL SINGAPORE 648350,648350,SECONDARY,648350,1.353526135,103.7016043
CANBERRA SECONDARY SCHOOL,51 SEMBAWANG DRIVE CANBERRA SECONDARY SCHOOL SINGAPORE 757699,757699,SECONDARY,757699,1.453279711,103.8144707
COMPASSVALE SECONDARY SCHOOL,51 COMPASSVALE CRESCENT COMPASSVALE SECONDARY SCHOOL SINGAPORE 545083,545083,SECONDARY,545083,1.396217575,103.8998722
EVERGREEN SECONDARY SCHOOL,11 WOODLANDS STREET 83 EVERGREEN SECONDARY SCHOOL SINGAPORE 738489,738489,SECONDARY,738489,1.4412208380000002,103.79377149999999
ANGLO-CHINESE SCHOOL (JUNIOR),16 WINSTEDT ROAD ANGLO-CHINESE SCHOOL (JUNIOR) SINGAPORE 227988,227988,PRIMARY,227988,1.309321297,103.8406435
CHIJ PRIMARY (TOA PAYOH),628 LORONG 1 TOA PAYOH CHIJ PRIMARY (TOA PAYOH) SINGAPORE 319765,319765,PRIMARY,319765,1.332818153,103.8419184
CHIJ (KELLOCK),121 QUEENSWAY SINGAPORE 149059,149059,PRIMARY,149059,1.302050821,103.80026459999999
CHIJ OUR LADY OF THE NATIVITY,1257 UPPER SERANGOON ROAD CHIJ OUR LADY OF THE NATIVITY SINGAPORE 534793,534793,PRIMARY,534793,1.373174017,103.89765940000001
DE LA SALLE SCHOOL,11 CHOA CHU KANG STREET 52 DE LA SALLE SCHOOL SINGAPORE 689285,689285,PRIMARY,689285,1.395071916,103.74344359999999
ST. ANDREW'S JUNIOR SCHOOL,2 FRANCIS THOMAS DRIVE SAINT ANDREW'S JUNIOR SCHOOL SINGAPORE 359337,359337,PRIMARY,359337,1.331389131,103.86512890000002
ST. ANTHONY'S CANOSSIAN PRIMARY SCHOOL,1602 BEDOK NORTH AVENUE 4 SAINT ANTHONY'S CANOSSIAN PRIMARY SCHOOL SINGAPORE 469701,469701,PRIMARY,469701,1.334806855,103.9412089
ST. GABRIEL'S PRIMARY SCHOOL,220 LORONG CHUAN SAINT GABRIEL'S PRIMARY SCHOOL SINGAPORE 556742,556742,PRIMARY,556742,1.349246034,103.862332
ST. MARGARET'S PRIMARY SCHOOL,99 WILKIE ROAD CHAPEL OF CHRIST THE KING SINGAPORE 228091,228091,PRIMARY,228091,1.304144074,103.8458203
ST. JOSEPH'S INSTITUTION JUNIOR,3 ESSEX ROAD SAINT JOSEPH'S INSTITUTION JUNIOR SINGAPORE 309331,309331,PRIMARY,309331,1.317702253,103.84567009999999
ST. STEPHEN'S SCHOOL,20 SIGLAP VIEW SAINT STEPHEN'S SCHOOL SINGAPORE 455789,455789,PRIMARY,455789,1.318816206,103.91752609999999
CHIJ OUR LADY OF GOOD COUNSEL,2C BURGHLEY DRIVE CHIJ OUR LADY OF GOOD COUNSEL SINGAPORE 558979,558979,PRIMARY,558979,1.357951427,103.8642502
MONTFORT JUNIOR SCHOOL,52 HOUGANG AVENUE 8 MONTFORT JUNIOR SCHOOL SINGAPORE 538786,538786,PRIMARY,538786,1.373937639,103.8896908
CHIJ OUR LADY QUEEN OF PEACE,4 CHESTNUT DRIVE CHIJ OUR LADY QUEEN OF PEACE SINGAPORE 679287,679287,PRIMARY,679287,1.366758014,103.7676948
FAIRFIELD METHODIST SCHOOL (PRIMARY),100 DOVER ROAD FAIRFIELD METHODIST SCHOOL (PRIMARY) SINGAPORE 139648,139648,PRIMARY,139648,1.300798691,103.7856922
GEYLANG METHODIST SCHOOL (PRIMARY),4 GEYLANG EAST CENTRAL CHRISTALITE METHODIST CHAPEL SINGAPORE 389706,389706,PRIMARY,389706,1.318144168,103.8836285
KUO CHUAN PRESBYTERIAN PRIMARY SCHOOL,8 BISHAN STREET 13 KUO CHUAN PRESBYTERIAN PRIMARY SCHOOL (U/C) SINGAPORE 579793,579793,PRIMARY,579793,1.3491145740000001,103.85444770000001
ST. HILDA'S PRIMARY SCHOOL,2 TAMPINES AVENUE 3 SAINT HILDA'S PRIMARY SCHOOL (U/C) SINGAPORE 529706,529706,PRIMARY,529706,1.349349944,103.93792049999999
SINGAPORE CHINESE GIRLS' PRIMARY SCHOOL,60 DUNEARN ROAD SINGAPORE 309434,309434,PRIMARY,309434,1.320394162,103.8299478
METHODIST GIRLS' SCHOOL (PRIMARY),11 BLACKMORE DRIVE METHODIST GIRLS' SCHOOL SINGAPORE 599986,599986,PRIMARY,599986,1.33286306,103.78336340000001
NAN CHIAU PRIMARY SCHOOL,50 ANCHORVALE LINK NASCANS NAN CHIAU SCC SINGAPORE 545080,545080,PRIMARY,545080,1.392064681,103.890925
CANOSSA CATHOLIC PRIMARY SCHOOL,1 SALLIM ROAD CANOSSIAN SCHOOL SINGAPORE 387621,387621,PRIMARY,387621,1.326853515,103.88100209999999
KONG HWA SCHOOL,350 GUILLEMARD ROAD KONG HWA SCHOOL SINGAPORE 399772,399772,PRIMARY,399772,1.311114219,103.88820940000001
MEE TOH SCHOOL,21 EDGEDALE PLAINS MEE TOH SCHOOL SINGAPORE 828867,828867,PRIMARY,828867,1.394853563,103.90857259999999
NGEE ANN PRIMARY SCHOOL,344 MARINE TERRACE NASCANS NGEE ANN SCC SINGAPORE 449149,449149,PRIMARY,449149,1.305525067,103.917463
RED SWASTIKA SCHOOL,350 BEDOK NORTH AVENUE 3 RED SWASTIKA SCHOOL SINGAPORE 469719,469719,PRIMARY,469719,1.33349383,103.93437490000001
TAO NAN SCHOOL,49 MARINE CRESCENT TAO NAN SCHOOL SINGAPORE 449761,449761,PRIMARY,449761,1.3046315290000001,103.9112042
NANYANG PRIMARY SCHOOL,52 KING'S ROAD LEARNING BLISS @ NANYANG PRIMARY SINGAPORE 268097,268097,PRIMARY,268097,1.321070942,103.8076819
ST. ANTHONY'S PRIMARY SCHOOL,30 BUKIT BATOK STREET 32 SAINT ANTHONY'S PRIMARY SCHOOL SINGAPORE 659401,659401,PRIMARY,659401,1.364639125,103.74929399999999
MAHA BODHI SCHOOL,10 UBI AVENUE 1 AFTER SCHOOL @ MAHA BODHI SCHOOL SINGAPORE 408931,408931,PRIMARY,408931,1.328580239,103.90130690000001
PEI CHUN PUBLIC SCHOOL,580 TOA PAYOH EAST SINGAPORE 319133,319133,PRIMARY,319133,1.3327408809999999,103.8586287
POI CHING SCHOOL,21 TAMPINES STREET 71 POI CHING SCHOOL SINGAPORE 529067,529067,PRIMARY,529067,1.358087001,103.93535250000001
KHENG CHENG SCHOOL,15 LORONG 3 TOA PAYOH KHENG CHENG SCHOOL SINGAPORE 319580,319580,PRIMARY,319580,1.337407636,103.84776109999999
NAN HUA PRIMARY SCHOOL,170 WEST COAST ROAD SINGAPORE 127443,127443,PRIMARY,127443,1.306142317,103.76517259999999
PEI HWA PRESBYTERIAN PRIMARY SCHOOL,7 PEI WAH AVENUE PEI HWA PRESBYTERIAN PRIMARY SCHOOL SINGAPORE 597610,597610,PRIMARY,597610,1.338055078,103.77610820000001
AI TONG SCHOOL,100 BRIGHT HILL DRIVE PRO-TEACH SCHOOLCARE (AI TONG) SINGAPORE 579646,579646,PRIMARY,579646,1.36058343,103.8330203
HONG WEN SCHOOL,30 TOWNER ROAD HONG WEN SCHOOL SINGAPORE 327829,327829,PRIMARY,327829,1.321689285,103.8576518
HOLY INNOCENTS' PRIMARY SCHOOL,5 LORONG LOW KOON HOLY INNOCENTS' PRIMARY SCHOOL SINGAPORE 536451,536451,PRIMARY,536451,1.366737841,103.89368409999999
PAYA LEBAR METHODIST GIRLS' SCHOOL (PRIMARY),298 LORONG AH SOO PAYA LEBAR METHODIST GIRLS' SCHOOL (PRIMARY) SINGAPORE 536741,536741,PRIMARY,536741,1.349841864,103.88497840000001
CHONGFU SCHOOL,170 YISHUN AVENUE 6 CHONGFU SCHOOL SINGAPORE 768959,768959,PRIMARY,768959,1.438462312,103.83907070000001
CHIJ (KATONG) PRIMARY,17 MARTIA ROAD CHIJ (KATONG) PRIMARY SINGAPORE 424821,424821,PRIMARY,424821,1.3065268620000001,103.9109216
ANGLO-CHINESE SCHOOL (PRIMARY),50 BARKER ROAD ANGLO-CHINESE SCHOOL (PRIMARY) SINGAPORE 309918,309918,PRIMARY,309918,1.318718599,103.8353452
ANGLO-CHINESE SCHOOL (INDEPENDENT),121 DOVER ROAD SHALOM BAPTIST CHURCH SINGAPORE 139650,139650,MIXED LEVEL,139650,1.30349131,103.7798311
ASSUMPTION ENGLISH SCHOOL,622 UPPER BUKIT TIMAH ROAD BOYS' TOWN SINGAPORE SINGAPORE 678117,678117,SECONDARY,678117,1.369162953,103.7679375
CHIJ SECONDARY (TOA PAYOH),626 LORONG 1 TOA PAYOH CHIJ SECONDARY (TOA PAYOH) SINGAPORE 319764,319764,SECONDARY,319764,1.33246213,103.84271940000001
GEYLANG METHODIST SCHOOL (SECONDARY),2 GEYLANG EAST CENTRAL GEYLANG METHODIST SCHOOL (SECONDARY) SINGAPORE 389705,389705,SECONDARY,389705,1.317658971,103.8825037
CHIJ KATONG CONVENT,346 MARINE TERRACE CHIJ KATONG CONVENT SINGAPORE 449150,449150,SECONDARY,449150,1.3065972240000001,103.9177542
MONTFORT SECONDARY SCHOOL,50 HOUGANG AVENUE 8 MONTFORT SECONDARY SCHOOL SINGAPORE 538785,538785,SECONDARY,538785,1.3739506780000001,103.8888598
SINGAPORE CHINESE GIRLS' SCHOOL,190 DUNEARN ROAD SINGAPORE CHINESE GIRLS' PRIMARY SCHOOL SINGAPORE 309437,309437,SECONDARY,309437,1.321252314,103.82770909999999
ST. ANDREW'S SECONDARY SCHOOL,15 FRANCIS THOMAS DRIVE SAINT ANDREW'S SECONDARY SCHOOL SINGAPORE 359342,359342,SECONDARY,359342,1.3309902740000001,103.86594609999999
ST. ANTHONY'S CANOSSIAN SECONDARY SCHOOL,1600 BEDOK NORTH AVENUE 4 SAINT ANTHONY'S CANOSSIAN SECONDARY SCHOOL SINGAPORE 469700,469700,SECONDARY,469700,1.334961214,103.9416688
ST. GABRIEL'S SECONDARY SCHOOL,24 SERANGOON AVENUE 1 SAINT GABRIEL'S SECONDARY SCHOOL SINGAPORE 556140,556140,SECONDARY,556140,1.346644168,103.87573420000001
CHIJ ST. JOSEPH'S CONVENT,62 SENGKANG EAST WAY CHIJ SAINT JOSEPH'S CONVENT SINGAPORE 548595,548595,SECONDARY,548595,1.3917809909999999,103.90257740000001
ST. JOSEPH'S INSTITUTION,38 MALCOLM ROAD SAINT JOSEPH'S INSTITUTION SINGAPORE 308274,308274,MIXED LEVEL,308274,1.323655609,103.82856650000001
ST. MARGARET'S SECONDARY SCHOOL,111 FARRER ROAD SAINT JOHN'S CHAPEL SINGAPORE 259240,259240,SECONDARY,259240,1.319774641,103.8096022
ST. PATRICK'S SCHOOL,490 EAST COAST ROAD SAINT PATRICK'S SCHOOL SINGAPORE 429058,429058,SECONDARY,429058,1.30801786,103.9174618
CHIJ ST. THERESA'S CONVENT,160 LOWER DELTA ROAD CHIJ SAINT THERESA'S CONVENT SINGAPORE 099138,099138,SECONDARY,099138,1.276029248,103.8223439
CHRIST CHURCH SECONDARY SCHOOL,20 WOODLANDS DRIVE 17 LIGHT OF CHRIST CHURCH WOODLANDS SINGAPORE 737924,737924,SECONDARY,737924,1.426539819,103.7929872
PAYA LEBAR METHODIST GIRLS' SCHOOL (SECONDARY),296 LORONG AH SOO PAYA LEBAR METHODIST GIRLS' SCHOOL (SECONDARY) SINGAPORE 536742,536742,SECONDARY,536742,1.3508051280000002,103.8855866
YUYING SECONDARY SCHOOL,47 HOUGANG AVENUE 1 YUYING SECONDARY SCHOOL SINGAPORE 538884,538884,SECONDARY,538884,1.356933603,103.89045759999999
KUO CHUAN PRESBYTERIAN SECONDARY SCHOOL,10 BISHAN STREET 13 KUO CHUAN PRESBYTERIAN SECONDARY SCHOOL SINGAPORE 579795,579795,SECONDARY,579795,1.350109648,103.8548917
ST. HILDA'S SECONDARY SCHOOL,2 TAMPINES STREET 82 SAINT HILDA'S SECONDARY SCHOOL SINGAPORE 528986,528986,SECONDARY,528986,1.3503757669999998,103.9366547
METHODIST GIRLS' SCHOOL (SECONDARY),11 BLACKMORE DRIVE METHODIST GIRLS' SCHOOL SINGAPORE 599986,599986,SECONDARY,599986,1.33286306,103.78336340000001
HAI SING CATHOLIC SCHOOL,9 PASIR RIS DRIVE 6 HAI SING CATHOLIC SCHOOL SINGAPORE 519421,519421,SECONDARY,519421,1.3746382030000002,103.9547513
ANGLO-CHINESE SCHOOL (BARKER ROAD),60 BARKER ROAD ANGLO-CHINESE SCHOOL (BARKER ROAD) SINGAPORE 309919,309919,SECONDARY,309919,1.319450608,103.83569849999999
ANGLICAN HIGH SCHOOL,"600 UPPER CHANGI ROAD ALL SAINTS' CHURCH, SINGAPORE SINGAPORE 487012",487012,SECONDARY,487012,1.330624547,103.9410621
CATHOLIC HIGH SCHOOL,9 BISHAN STREET 22 CATHOLIC HIGH SCHOOL SINGAPORE 579767,579767,MIXED LEVEL,579767,1.3547888769999998,103.84493409999999
CHUNG CHENG HIGH SCHOOL (MAIN),50 GOODMAN ROAD CHUNG CHENG HIGH SCHOOL (MAIN) SINGAPORE 439012,439012,SECONDARY,439012,1.3053811309999999,103.8907366
CHUNG CHENG HIGH SCHOOL (YISHUN),11 YISHUN STREET 61 CHUNG CHENG HIGH SCHOOL (YISHUN) SINGAPORE 768547,768547,SECONDARY,768547,1.41874603,103.83731929999999
HOLY INNOCENTS' HIGH SCHOOL,1191 UPPER SERANGOON ROAD HOLY INNOCENTS' HIGH SCHOOL SINGAPORE 534786,534786,SECONDARY,534786,1.371215065,103.8960266
MARIS STELLA HIGH SCHOOL,25 BARTLEY ROAD THE LEARNING CAMPUS @ MARIS STELLA SINGAPORE 368051,368051,MIXED LEVEL,368051,1.342183956,103.8780965
NAN CHIAU HIGH SCHOOL,20 ANCHORVALE LINK NAN CHIAU HIGH SCHOOL SINGAPORE 545079,545079,SECONDARY,545079,1.388687442,103.8902862
NANYANG GIRLS' HIGH SCHOOL,2 LINDEN DRIVE NANYANG GIRLS' HIGH SCHOOL SINGAPORE 288683,288683,SECONDARY,288683,1.33068757,103.8023854
CHIJ ST. NICHOLAS GIRLS' SCHOOL,501 ANG MO KIO STREET 13 CHIJ SAINT NICHOLAS GIRLS' SCHOOL SINGAPORE 569405,569405,MIXED LEVEL,569405,1.3737296730000002,103.83430890000001
MARYMOUNT CONVENT SCHOOL,20 MARYMOUNT ROAD MARYMOUNT CONVENT SCHOOL SINGAPORE 297754,297754,PRIMARY,297754,1.340427023,103.839899
MANJUSRI SECONDARY SCHOOL,20 UBI AVENUE 1 MANJUSRI SECONDARY SCHOOL SINGAPORE 408940,408940,SECONDARY,408940,1.327520222,103.901811
PRESBYTERIAN HIGH SCHOOL,5209 ANG MO KIO AVENUE 6 TRUE GRACE PRESBYTERIAN CHURCH SINGAPORE 569845,569845,SECONDARY,569845,1.381804695,103.8424318
FAIRFIELD METHODIST SCHOOL (SECONDARY),102 DOVER ROAD HOLY COVENANT METHODIST CHURCH SINGAPORE 139649,139649,SECONDARY,139649,1.301837422,103.7843405
NGEE ANN SECONDARY SCHOOL,1 TAMPINES STREET 32 NGEE ANN SECONDARY SCHOOL SINGAPORE 529283,529283,SECONDARY,529283,1.354398239,103.9567447
SINGAPORE SPORTS SCHOOL,1 CHAMPIONS WAY SINGAPORE SPORTS SCHOOL SINGAPORE 737913,737913,MIXED LEVEL,737913,1.42641193,103.78943620000001
NUS HIGH SCHOOL OF MATHEMATICS AND SCIENCE,20 CLEMENTI AVENUE 1 NUS HIGH SCHOOL OF MATHEMATICS AND SCIENCE SINGAPORE 129957,129957,MIXED LEVEL,129957,1.306620988,103.7694125
"SCHOOL OF THE ARTS, SINGAPORE",1 ZUBIR SAID DRIVE SOTA THEATRE & HALL SINGAPORE 227968,227968,MIXED LEVEL,227968,1.29935139,103.8486745
NORTHLIGHT SCHOOL,151 TOWNER ROAD NORTHLIGHT SCHOOL SINGAPORE 327830,327830,SECONDARY,327830,1.319828249,103.85632659999999
ASSUMPTION PATHWAY SCHOOL,30 CASHEW ROAD ASSUMPTION PATHWAY SCHOOL SINGAPORE 679697,679697,SECONDARY,679697,1.370478019,103.7667998
"SCHOOL OF SCIENCE AND TECHNOLOGY, SINGAPORE","1 TECHNOLOGY DRIVE SCHOOL OF SCIENCE AND TECHNOLOGY, SINGAPORE SINGAPORE 138572",138572,SECONDARY,138572,1.313162786,103.7739541
CREST SECONDARY SCHOOL,561 JURONG EAST STREET 24 CREST SECONDARY SCHOOL SINGAPORE 609561,609561,SECONDARY,609561,1.3435550230000002,103.74254309999999
SPECTRA SECONDARY SCHOOL,1 WOODLANDS DRIVE 64 SPECTRA SECONDARY SCHOOL SINGAPORE 737758,737758,SECONDARY,737758,1.436438502,103.8044327
